stk.v.12.0
    
    # WrittenBy    STK_v12.2.0
    
    BEGIN Ephemeris
        NumberOfEphemerisPoints		 193
        ScenarioEpoch		 6 Aug 2021 23:59:42.000000
        InterpolationMethod		 Lagrange
        InterpolationSamplesM1		 7
        CentralBody		 Earth
        CoordinateSystem		 ICRF
    
        EphemerisTimePosVel	
3.1922114349128616 915666.9778317837 -5535712.432856071 3032832.5981743615 0.02620077609667194 0.015069540653411932 0.030918509267897614
3.2185603569430192 915666.978523564 -5535712.432455376 3032832.5989879835 0.026231943696149684 0.015434772756155584 0.030647815504065812
3.243286571555814 915666.9791715598 -5535712.432072776 3032832.5997476885 0.026086508923382053 0.015413466447435395 0.03092333032467938
3.2677066799578895 915666.9798098697 -5535712.431696118 3032832.6005050656 0.026248472609940822 0.015641974982890643 0.031003349542504777
3.292998416906741 915666.9804733561 -5535712.431300724 3032832.6012944416 0.025997679318145537 0.01573336853212008 0.031533369691756796
3.316413860752199 915666.9810832714 -5535712.430928894 3032832.60203491 0.026169904436727176 0.01587693765132378 0.03153138669779457
3.338768605267889 915666.9816687636 -5535712.430574183 3032832.6027411018 0.02610913526939366 0.015687598289081017 0.03166336456015279
3.359603171261571 915666.9822133536 -5535712.430246749 3032832.603403994 0.026136201255704983 0.01572035896304348 0.03170907356809154
3.383678471624314 915666.9828474832 -5535712.429867856 3032832.604166038 0.02658668965774476 0.015817565177744027 0.031392676394935974
3.4082742485887665 915666.983499502 -5535712.429476996 3032832.6049421206 0.026512273327012486 0.015840898560400298 0.0319031979116479
3.4374685610353914 915666.9842773491 -5535712.429012706 3032832.6058762353 0.02695320033440182 0.015895473791591477 0.03203302820192418
3.465683763371969 915666.9850382548 -5535712.428562693 3032832.606787232 0.026833666924513836 0.016037519306659028 0.032349168636572966
3.4950812190561633 915666.9858253675 -5535712.428084961 3032832.6077430234 0.02672204015968354 0.016410604875565223 0.03251880684583198
3.52501304466895 915666.9866327393 -5535712.427591131 3032832.608728986 0.02706620622942477 0.016830655756527712 0.033352590644545765
3.553057877560382 915666.9873983955 -5535712.427116439 3032832.6096671307 0.02768568857549362 0.0171003369189736 0.03341883910303289
3.5832193454258556 915666.9882332673 -5535712.426597493 3032832.610680351 0.027661593522053232 0.017402058938961486 0.033506146462106506
3.6140099152740652 915666.9890891688 -5535712.426060693 3032832.611713252 0.027753305444356433 0.017332256454420495 0.0335992227460474
3.6464141829573165 915666.989993165 -5535712.425501301 3032832.6128099132 0.027745785134949522 0.017380013865813223 0.03393721682792959
3.677673694506964 915666.9908655239 -5535712.424951479 3032832.6138815894 0.02786419691327223 0.01785521025826199 0.03465148686378219
3.7045421942571126 915666.9916195872 -5535712.424467438 3032832.614817231 0.028399005255643282 0.018353373133957403 0.03508940277427025
3.7306194514541007 915666.9923628285 -5535712.423985365 3032832.6157294647 0.02849402345701477 0.018654051253499095 0.03491784898364384
3.759402147473092 915666.9931837858 -5535712.42344475 3032832.61673789 0.028426763883346896 0.018963169551910995 0.03528551254841248
3.788969487777845 915666.9940271281 -5535712.422882041 3032832.617784741 0.028715336460899955 0.018887834957575796 0.035694539175177016
3.818201139394633 915666.99486564 -5535712.422332219 3032832.6188360564 0.02861468378136527 0.018636646651085536 0.03631613416261417
3.8469312162216154 915666.9956875205 -5535712.421795372 3032832.619884279 0.028607145104902833 0.01874765186445311 0.03652036415844315
3.880154109230419 915666.9966445394 -5535712.421170945 3032832.621098694 0.02881748970388896 0.019075039704964755 0.03655709929461024
3.912249178076386 915666.9975710611 -5535712.420554225 3032832.622272431 0.028782268385097454 0.019371225866504947 0.03649272311412125
3.9399907775784344 915666.9983721176 -5535712.4200158445 3032832.62329027 0.02904266458234714 0.019481107304022208 0.03662865109929855
3.9677323770804827 915666.9991797269 -5535712.419476286 3032832.624305779 0.029415091155047954 0.019491414716673386 0.036781689296104585
3.996423842418912 915667.0000271503 -5535712.418915826 3032832.62536631 0.029665665214378655 0.01973763570774651 0.03695313782015756
4.027741897005319 915667.0009623215 -5535712.418300137 3032832.6265287707 0.030260495958082164 0.019528656889511043 0.03716142884741808
4.059531762303769 915667.0019234498 -5535712.417673935 3032832.6277149194 0.030011540929181214 0.01985433758685692 0.03730755039059119
4.089976559092906 915667.002840028 -5535712.417072825 3032832.628854742 0.030057153221405213 0.01966534018458406 0.03750828898439649
4.125770432015137 915667.0039132399 -5535712.416365667 3032832.6301977397 0.030092570360168935 0.019849717613893196 0.0375509160753244
4.162555794543243 915667.0050228111 -5535712.415638362 3032832.6315810373 0.030470798018900947 0.019865703513021287 0.03784098496415846
4.201515708174848 915667.0062124571 -5535712.414857699 3032832.6330571943 0.030745751638882136 0.02040478580919088 0.03811466431133817
4.240190187360644 915667.0074150236 -5535712.414063893 3032832.634529609 0.031148079373039768 0.0207899021156895 0.038056754538610606
4.273318155442676 915667.0084561118 -5535712.413374627 3032832.6357910205 0.03151110520300796 0.02075612608603404 0.03836638289799104
4.305784637547411 915667.0094875521 -5535712.41270069 3032832.637041557 0.032128882126640494 0.020659596734615093 0.038319811172391666
4.341710131888171 915667.0106410126 -5535712.411954085 3032832.638424967 0.03221530683438799 0.02117225417327041 0.03910535287213699
4.374348814182355 915667.0117021435 -5535712.41126496 3032832.639699013 0.03247515994764511 0.021253482614134924 0.03902456425575624
4.40765343347781 915667.0127925823 -5535712.410550956 3032832.6410027067 0.03288108200729862 0.02136056451558579 0.03901522206125918
4.44021734646825 915667.013866121 -5535712.409854113 3032832.6422836855 0.03304773798653002 0.021748278952791023 0.03958349990786059
4.472147070908383 915667.0149235345 -5535712.409163086 3032832.643555976 0.033159484339980866 0.02157147783940418 0.04023500918241691
4.50390668230583 915667.0159735782 -5535712.408473871 3032832.644833354 0.03292691652438082 0.021647820694366483 0.04041954471689874
4.544290292829549 915667.0173089716 -5535712.407600679 3032832.646480961 0.03312008369371242 0.021661124505654918 0.04097638113708285
4.5843387898259085 915667.018639674 -5535712.406734887 3032832.648131248 0.03346305556253085 0.021504567846993044 0.04163710114128155
4.624584969106268 915667.0199904466 -5535712.40586765 3032832.649822812 0.033482984511828476 0.021688142969643835 0.042756965150366616
4.664262076594609 915667.021330912 -5535712.405004967 3032832.6515318886 0.03384957523083597 0.021825330437943484 0.043669728727801185
4.7023116621053465 915667.0226238123 -5535712.404175342 3032832.6532014282 0.034085451674017025 0.0218226892279398 0.04374844765744195
4.739829717076732 915667.0239055628 -5535712.403352146 3032832.6548530995 0.03447047331772346 0.022113179291788052 0.04374945228549477
4.776570775308001 915667.0251728517 -5535712.402539657 3032832.6564730695 0.03476372267390189 0.021994483223853483 0.04453900527409436
4.81565860758048 915667.0265323863 -5535712.401670461 3032832.6582155474 0.03464865029752771 0.02230127431359361 0.044520450559174696
4.855197859808921 915667.0279043117 -5535712.400789989 3032832.659986299 0.03471466037279742 0.02228302471502503 0.04514619799107932
4.8997213964999595 915667.0294625707 -5535712.399800264 3032832.6620140495 0.03529701371193455 0.0221778318015605 0.04621531781181566
4.944881889860804 915667.0310653978 -5535712.3988041505 3032832.6641040854 0.035851656524531185 0.022003263138021024 0.04636725047066393
4.987455481637 915667.032602389 -5535712.397854862 3032832.6660847706 0.03654084132197279 0.02256837467619064 0.04658421876106503
5.030029073413196 915667.0341592387 -5535712.396888329 3032832.668091439 0.03667710997012613 0.022936172803522625 0.047806729218385094
5.070074659487474 915667.0356300285 -5535712.3959640665 3032832.670006007 0.03682507441284283 0.023146595030545804 0.04798571701164853
5.114214185052698 915667.0372562584 -5535712.394939821 3032832.6721285223 0.03708692515167753 0.023656570504730526 0.048268681911296005
5.150290757913417 915667.0385946869 -5535712.394085991 3032832.6738707474 0.03754708009354594 0.02356606827001757 0.048084404127588416
5.184979426751234 915667.0399042354 -5535712.393267911 3032832.6755423853 0.03811956159943168 0.023555720963288358 0.048328165296877
5.220161178987379 915667.0412523114 -5535712.392427963 3032832.6772469697 0.0386559625215084 0.02422651185451513 0.04890363531215813
5.255747396763308 915667.0426397437 -5535712.39156433 3032832.678996453 0.039583114312508376 0.024511247651395722 0.04947596398243977
5.2917727690915575 915667.0440637587 -5535712.39067926 3032832.680785681 0.03946449866307333 0.02439814071664833 0.049657757781244545
5.327501713441169 915667.0454744123 -5535712.389796103 3032832.6825761977 0.03943198339174097 0.025238366903269076 0.050731139141221036
5.360290321950291 915667.046771735 -5535712.388972014 3032832.6842437247 0.03980574287630542 0.02515865097123719 0.05116612660814482
5.405954453707422 915667.0486016345 -5535712.387816482 3032832.686597074 0.03983644884147198 0.025275952193298177 0.051699837778015525
5.449630575158262 915667.0503493565 -5535712.386714244 3032832.688859105 0.04023186141293643 0.025051684911953632 0.051825329596101095
5.496894188951152 915667.0522616894 -5535712.3855201835 3032832.6913161385 0.040189468284154775 0.025666111892145186 0.05204824958759499
5.540844521780918 915667.0540359211 -5535712.3843941465 3032832.6936140736 0.04002410638772865 0.025869575658757388 0.05296339812913234
